[{"OBJECT_NAME":"LYNK TOWER 6","OBJECT_ID":"2024-043AB","EPOCH":"2026-03-09T21:28:38.303328","MEAN_MOTION":15.29548678,"ECCENTRICITY":0.00097492,"INCLINATION":97.5426,"RA_OF_ASC_NODE":204.1954,"ARG_OF_PERICENTER":232.0253,"MEAN_ANOMALY":128.0107,"EPHEMERIS_TYPE":0,"CLASSIFICATION_TYPE":"U","NORAD_CAT_ID":59123,"ELEMENT_SET_NO":999,"REV_AT_EPOCH":11184,"BSTAR":0.00040142146,"MEAN_MOTION_DOT":0.0001144,"MEAN_MOTION_DDOT":0},{"OBJECT_NAME":"STARLINK-33794","OBJECT_ID":"2025-092S","EPOCH":"2026-03-09T07:18:52.673184","MEAN_MOTION":15.27611759,"ECCENTRICITY":0.00016336,"INCLINATION":42.9993,"RA_OF_ASC_NODE":174.904,"ARG_OF_PERICENTER":276.8561,"MEAN_ANOMALY":83.2105,"EPHEMERIS_TYPE":0,"CLASSIFICATION_TYPE":"U","NORAD_CAT_ID":63820,"ELEMENT_SET_NO":999,"REV_AT_EPOCH":4855,"BSTAR":0.0011456603,"MEAN_MOTION_DOT":0.00031429,"MEAN_MOTION_DDOT":0}]
